{
    "links": {
        "self": "http://www.neowsapp.com/rest/v1/neo/3408130?api_key=iIulBulltgU6a56xZRHN4H3l9WmuAYTsLGpBGhQ2"
    },
    "id": "3408130",
    "neo_reference_id": "3408130",
    "name": "(2008 GV)",
    "designation": "2008 GV",
    "nasa_jpl_url": "http://ssd.jpl.nasa.gov/sbdb.cgi?sstr=3408130",
    "absolute_magnitude_h": 23.2,
    "estimated_diameter": {
        "kilometers": {
            "estimated_diameter_min": 0.0608912622,
            "estimated_diameter_max": 0.1361570015
        },
        "meters": {
            "estimated_diameter_min": 60.8912622106,
            "estimated_diameter_max": 136.1570015386
        },
        "miles": {
            "estimated_diameter_min": 0.0378360645,
            "estimated_diameter_max": 0.0846040122
        },
        "feet": {
            "estimated_diameter_min": 199.7744887109,
            "estimated_diameter_max": 446.7093369279
        }
    },
    "is_potentially_hazardous_asteroid": false,
    "close_approach_data": [
        {
            "close_approach_date": "2008-04-05",
            "close_approach_date_full": "2008-Apr-05 10:16",
            "epoch_date_close_approach": 1207390560000,
            "relative_velocity": {
                "kilometers_per_second": "18.4518971965",
                "kilometers_per_hour": "66426.8299074288",
                "miles_per_hour": "41275.0488388687"
            },
            "miss_distance": {
                "astronomical": "0.0669422034",
                "lunar": "26.0405171226",
                "kilometers": "10014411.041746758",
                "miles": "6222666.4724629404"
            },
            "orbiting_body": "Earth"
        }
    ],
    "orbital_data": {
        "orbit_id": "9",
        "orbit_determination_date": "2017-04-06 09:03:48",
        "first_observation_date": "2008-04-03",
        "last_observation_date": "2008-04-06",
        "data_arc_in_days": 3,
        "observations_used": 32,
        "orbit_uncertainty": "9",
        "minimum_orbit_intersection": ".0668275",
        "jupiter_tisserand_invariant": "2.895",
        "epoch_osculation": "2454561.5",
        "eccentricity": ".6102743203177196",
        "semi_major_axis": "2.737895232980184",
        "inclination": "30.12373250429059",
        "ascending_node_longitude": "15.64658277559964",
        "orbital_period": "1654.716758292735",
        "perihelion_distance": "1.067028080572078",
        "perihelion_argument": "177.5852122002323",
        "aphelion_distance": "4.40876238538829",
        "perihelion_time": "2454559.831079099950",
        "mean_anomaly": ".3630902515533181",
        "mean_motion": ".2175598924685047",
        "equinox": "J2000",
        "orbit_class": {
            "orbit_class_type": "AMO",
            "orbit_class_description": "Near-Earth asteroid orbits similar to that of 1221 Amor",
            "orbit_class_range": "1.017 AU < q (perihelion) < 1.3 AU"
        }
    },
    "is_sentry_object": false
}